[
    {
        "Altitude(m)": 604234.612103489,
        "Argument of Periapsis(deg)": 0.0,
        "Eccentricity": 0.0,
        "Inclination(deg)": 60.0,
        "Latitude(deg)": 14.11725215221074,
        "Longitude(deg)": 171.72735502592212,
        "Mean Anomaly(deg)": 163.6364,
        "RAAN(deg)": 100.0,
        "Satellite Name": "Test1 450",
        "Satellite Number": 450,
        "Semi-Major Axis(m)": 6980739.136638005,
        "Time(s)": 0
    },
    {
        "Altitude(m)": 604223.4404775392,
        "Argument of Periapsis(deg)": 0.00010418945913296404,
        "Eccentricity": 0.0,
        "Inclination(deg)": 60.0,
        "Latitude(deg)": 13.582387963728229,
        "Longitude(deg)": 172.01426313089803,
        "Mean Anomaly(deg)": 164.25650614546183,
        "RAAN(deg)": 99.99957995086025,
        "Satellite Name": "Test1 450",
        "Satellite Number": 450,
        "Semi-Major Axis(m)": 6980739.136638005,
        "Time(s)": 10
    }
]